STARLINK-36207          
1 67014U 25293M   25363.25002315 -.01631926  00000+0 -20168-1 0  9993
2 67014  70.0010 276.3133 0003602 270.2119 342.6175 15.63101521  2821
STARLINK-36093          
1 67015U 25293N   25363.25002315 -.01627585  00000+0 -20137-1 0  9996
2 67015  69.9993 276.3082 0003370 270.9091 346.1205 15.63067041  2753
STARLINK-36120          
1 67016U 25293P   25363.25002315 -.01627375  00000+0 -20117-1 0  9992
2 67016  69.9991 276.3116 0003352 270.9564 343.9274 15.63088693  2752
STARLINK-35498          
1 67017U 25293Q   25363.25002315 -.01626757  00000+0 -20138-1 0  9999
2 67017  69.9992 276.3063 0003422 270.7961 348.3267 15.63050096  2951
STARLINK-36106          
1 67018U 25293R   25363.25002315 -.01627426  00000+0 -20160-1 0  9999
2 67018  69.9994 276.3033 0003546 270.9725 350.2489 15.63033256  2876
STARLINK-35688          
1 67019U 25293S   25363.25002315 -.01627877  00000+0 -20178-1 0  9999
2 67019  69.9990 276.3004 0003383 270.7149 352.5574 15.63020610  2957
STARLINK-36172          
1 67020U 25293T   25363.25002315 -.01627002  00000+0 -20191-1 0  9996
2 67020  69.9990 276.2978 0003391 270.3431 355.1568 15.62988748  2874
STARLINK-36184          
1 67021U 25293U   25363.25002315 -.01628330  00000+0 -20225-1 0  9990
2 67021  69.9991 276.2948 0003390 269.9854 357.6605 15.62969594  2872
STARLINK-36209          
1 67022U 25293V   25363.25002315 -.01638972  00000+0 -20398-1 0  9995
2 67022  69.9991 276.2919 0003406 269.1274   0.7948 15.62939503  2870
STARLINK-36191          
1 67023U 25293W   25363.25002315 -.01628742  00000+0 -20274-1 0  9993
2 67023  69.9993 276.2898 0003443 270.1728   1.8694 15.62914281  2760
STARLINK-36192          
1 67024U 25293X   25363.25002315 -.01628211  00000+0 -20290-1 0  9993
2 67024  69.9991 276.2866 0003380 268.6619   5.5916 15.62885446  2875
STARLINK-36178          
1 67025U 25293Y   25363.25002315 -.01630639  00000+0 -20333-1 0  9999
2 67025  69.9992 276.2842 0003356 268.9451   7.3651 15.62874343  2871
