CCSDS_OMM_VERS = 2.0
CREATION_DATE  = 
ORIGINATOR     = 

OBJECT_NAME    = STARLINK-36207
OBJECT_ID      = 2025-293M
CENTER_NAME    = EARTH
REF_FRAME      = TEME
TIME_SYSTEM    = UTC
MEAN_ELEMENT_THEORY = SGP/SGP4

EPOCH          = 2025-12-29T06:00:02.000160
MEAN_MOTION    = 15.63101521
ECCENTRICITY   = .00036027
INCLINATION    = 70.0010
RA_OF_ASC_NODE = 276.3133
ARG_OF_PERICENTER = 270.2119
MEAN_ANOMALY   = 342.6175

EPHEMERIS_TYPE = 0
CLASSIFICATION_TYPE = U
NORAD_CAT_ID   = 67014
ELEMENT_SET_NO = 999
REV_AT_EPOCH   = 282
BSTAR          = -.20167637E-1
MEAN_MOTION_DOT = -.1631926E-1
MEAN_MOTION_DDOT = 0

CCSDS_OMM_VERS = 2.0
CREATION_DATE  = 
ORIGINATOR     = 

OBJECT_NAME    = STARLINK-36093
OBJECT_ID      = 2025-293N
CENTER_NAME    = EARTH
REF_FRAME      = TEME
TIME_SYSTEM    = UTC
MEAN_ELEMENT_THEORY = SGP/SGP4

EPOCH          = 2025-12-29T06:00:02.000160
MEAN_MOTION    = 15.63067041
ECCENTRICITY   = .00033706
INCLINATION    = 69.9993
RA_OF_ASC_NODE = 276.3082
ARG_OF_PERICENTER = 270.9091
MEAN_ANOMALY   = 346.1205

EPHEMERIS_TYPE = 0
CLASSIFICATION_TYPE = U
NORAD_CAT_ID   = 67015
ELEMENT_SET_NO = 999
REV_AT_EPOCH   = 275
BSTAR          = -.20136793E-1
MEAN_MOTION_DOT = -.1627585E-1
MEAN_MOTION_DDOT = 0

CCSDS_OMM_VERS = 2.0
CREATION_DATE  = 
ORIGINATOR     = 

OBJECT_NAME    = STARLINK-36120
OBJECT_ID      = 2025-293P
CENTER_NAME    = EARTH
REF_FRAME      = TEME
TIME_SYSTEM    = UTC
MEAN_ELEMENT_THEORY = SGP/SGP4

EPOCH          = 2025-12-29T06:00:02.000160
MEAN_MOTION    = 15.63088693
ECCENTRICITY   = .00033529
INCLINATION    = 69.9991
RA_OF_ASC_NODE = 276.3116
ARG_OF_PERICENTER = 270.9564
MEAN_ANOMALY   = 343.9274

EPHEMERIS_TYPE = 0
CLASSIFICATION_TYPE = U
NORAD_CAT_ID   = 67016
ELEMENT_SET_NO = 999
REV_AT_EPOCH   = 275
BSTAR          = -.20116852E-1
MEAN_MOTION_DOT = -.1627375E-1
MEAN_MOTION_DDOT = 0

CCSDS_OMM_VERS = 2.0
CREATION_DATE  = 
ORIGINATOR     = 

OBJECT_NAME    = STARLINK-35498
OBJECT_ID      = 2025-293Q
CENTER_NAME    = EARTH
REF_FRAME      = TEME
TIME_SYSTEM    = UTC
MEAN_ELEMENT_THEORY = SGP/SGP4

EPOCH          = 2025-12-29T06:00:02.000160
MEAN_MOTION    = 15.63050096
ECCENTRICITY   = .00034228
INCLINATION    = 69.9992
RA_OF_ASC_NODE = 276.3063
ARG_OF_PERICENTER = 270.7961
MEAN_ANOMALY   = 348.3267

EPHEMERIS_TYPE = 0
CLASSIFICATION_TYPE = U
NORAD_CAT_ID   = 67017
ELEMENT_SET_NO = 999
REV_AT_EPOCH   = 295
BSTAR          = -.20138129E-1
MEAN_MOTION_DOT = -.1626757E-1
MEAN_MOTION_DDOT = 0

CCSDS_OMM_VERS = 2.0
CREATION_DATE  = 
ORIGINATOR     = 

OBJECT_NAME    = STARLINK-36106
OBJECT_ID      = 2025-293R
CENTER_NAME    = EARTH
REF_FRAME      = TEME
TIME_SYSTEM    = UTC
MEAN_ELEMENT_THEORY = SGP/SGP4

EPOCH          = 2025-12-29T06:00:02.000160
MEAN_MOTION    = 15.63033256
ECCENTRICITY   = .00035462
INCLINATION    = 69.9994
RA_OF_ASC_NODE = 276.3033
ARG_OF_PERICENTER = 270.9725
MEAN_ANOMALY   = 350.2489

EPHEMERIS_TYPE = 0
CLASSIFICATION_TYPE = U
NORAD_CAT_ID   = 67018
ELEMENT_SET_NO = 999
REV_AT_EPOCH   = 287
BSTAR          = -.20159579E-1
MEAN_MOTION_DOT = -.1627426E-1
MEAN_MOTION_DDOT = 0

CCSDS_OMM_VERS = 2.0
CREATION_DATE  = 
ORIGINATOR     = 

OBJECT_NAME    = STARLINK-35688
OBJECT_ID      = 2025-293S
CENTER_NAME    = EARTH
REF_FRAME      = TEME
TIME_SYSTEM    = UTC
MEAN_ELEMENT_THEORY = SGP/SGP4

EPOCH          = 2025-12-29T06:00:02.000160
MEAN_MOTION    = 15.63020610
ECCENTRICITY   = .00033832
INCLINATION    = 69.9990
RA_OF_ASC_NODE = 276.3004
ARG_OF_PERICENTER = 270.7149
MEAN_ANOMALY   = 352.5574

EPHEMERIS_TYPE = 0
CLASSIFICATION_TYPE = U
NORAD_CAT_ID   = 67019
ELEMENT_SET_NO = 999
REV_AT_EPOCH   = 295
BSTAR          = -.20177644E-1
MEAN_MOTION_DOT = -.1627877E-1
MEAN_MOTION_DDOT = 0

CCSDS_OMM_VERS = 2.0
CREATION_DATE  = 
ORIGINATOR     = 

OBJECT_NAME    = STARLINK-36172
OBJECT_ID      = 2025-293T
CENTER_NAME    = EARTH
REF_FRAME      = TEME
TIME_SYSTEM    = UTC
MEAN_ELEMENT_THEORY = SGP/SGP4

EPOCH          = 2025-12-29T06:00:02.000160
MEAN_MOTION    = 15.62988748
ECCENTRICITY   = .00033913
INCLINATION    = 69.9990
RA_OF_ASC_NODE = 276.2978
ARG_OF_PERICENTER = 270.3431
MEAN_ANOMALY   = 355.1568

EPHEMERIS_TYPE = 0
CLASSIFICATION_TYPE = U
NORAD_CAT_ID   = 67020
ELEMENT_SET_NO = 999
REV_AT_EPOCH   = 287
BSTAR          = -.20190651E-1
MEAN_MOTION_DOT = -.1627002E-1
MEAN_MOTION_DDOT = 0

CCSDS_OMM_VERS = 2.0
CREATION_DATE  = 
ORIGINATOR     = 

OBJECT_NAME    = STARLINK-36184
OBJECT_ID      = 2025-293U
CENTER_NAME    = EARTH
REF_FRAME      = TEME
TIME_SYSTEM    = UTC
MEAN_ELEMENT_THEORY = SGP/SGP4

EPOCH          = 2025-12-29T06:00:02.000160
MEAN_MOTION    = 15.62969594
ECCENTRICITY   = .00033908
INCLINATION    = 69.9991
RA_OF_ASC_NODE = 276.2948
ARG_OF_PERICENTER = 269.9854
MEAN_ANOMALY   = 357.6605

EPHEMERIS_TYPE = 0
CLASSIFICATION_TYPE = U
NORAD_CAT_ID   = 67021
ELEMENT_SET_NO = 999
REV_AT_EPOCH   = 287
BSTAR          = -.20224529E-1
MEAN_MOTION_DOT = -.162833E-1
MEAN_MOTION_DDOT = 0

CCSDS_OMM_VERS = 2.0
CREATION_DATE  = 
ORIGINATOR     = 

OBJECT_NAME    = STARLINK-36209
OBJECT_ID      = 2025-293V
CENTER_NAME    = EARTH
REF_FRAME      = TEME
TIME_SYSTEM    = UTC
MEAN_ELEMENT_THEORY = SGP/SGP4

EPOCH          = 2025-12-29T06:00:02.000160
MEAN_MOTION    = 15.62939503
ECCENTRICITY   = .00034061
INCLINATION    = 69.9991
RA_OF_ASC_NODE = 276.2919
ARG_OF_PERICENTER = 269.1274
MEAN_ANOMALY   = 0.7948

EPHEMERIS_TYPE = 0
CLASSIFICATION_TYPE = U
NORAD_CAT_ID   = 67022
ELEMENT_SET_NO = 999
REV_AT_EPOCH   = 287
BSTAR          = -.20398027E-1
MEAN_MOTION_DOT = -.1638972E-1
MEAN_MOTION_DDOT = 0

CCSDS_OMM_VERS = 2.0
CREATION_DATE  = 
ORIGINATOR     = 

OBJECT_NAME    = STARLINK-36191
OBJECT_ID      = 2025-293W
CENTER_NAME    = EARTH
REF_FRAME      = TEME
TIME_SYSTEM    = UTC
MEAN_ELEMENT_THEORY = SGP/SGP4

EPOCH          = 2025-12-29T06:00:02.000160
MEAN_MOTION    = 15.62914281
ECCENTRICITY   = .00034433
INCLINATION    = 69.9993
RA_OF_ASC_NODE = 276.2898
ARG_OF_PERICENTER = 270.1728
MEAN_ANOMALY   = 1.8694

EPHEMERIS_TYPE = 0
CLASSIFICATION_TYPE = U
NORAD_CAT_ID   = 67023
ELEMENT_SET_NO = 999
REV_AT_EPOCH   = 276
BSTAR          = -.20273894E-1
MEAN_MOTION_DOT = -.1628742E-1
MEAN_MOTION_DDOT = 0

CCSDS_OMM_VERS = 2.0
CREATION_DATE  = 
ORIGINATOR     = 

OBJECT_NAME    = STARLINK-36192
OBJECT_ID      = 2025-293X
CENTER_NAME    = EARTH
REF_FRAME      = TEME
TIME_SYSTEM    = UTC
MEAN_ELEMENT_THEORY = SGP/SGP4

EPOCH          = 2025-12-29T06:00:02.000160
MEAN_MOTION    = 15.62885446
ECCENTRICITY   = .00033802
INCLINATION    = 69.9991
RA_OF_ASC_NODE = 276.2866
ARG_OF_PERICENTER = 268.6619
MEAN_ANOMALY   = 5.5916

EPHEMERIS_TYPE = 0
CLASSIFICATION_TYPE = U
NORAD_CAT_ID   = 67024
ELEMENT_SET_NO = 999
REV_AT_EPOCH   = 287
BSTAR          = -.20290102E-1
MEAN_MOTION_DOT = -.1628211E-1
MEAN_MOTION_DDOT = 0

CCSDS_OMM_VERS = 2.0
CREATION_DATE  = 
ORIGINATOR     = 

OBJECT_NAME    = STARLINK-36178
OBJECT_ID      = 2025-293Y
CENTER_NAME    = EARTH
REF_FRAME      = TEME
TIME_SYSTEM    = UTC
MEAN_ELEMENT_THEORY = SGP/SGP4

EPOCH          = 2025-12-29T06:00:02.000160
MEAN_MOTION    = 15.62874343
ECCENTRICITY   = .00033567
INCLINATION    = 69.9992
RA_OF_ASC_NODE = 276.2842
ARG_OF_PERICENTER = 268.9451
MEAN_ANOMALY   = 7.3651

EPHEMERIS_TYPE = 0
CLASSIFICATION_TYPE = U
NORAD_CAT_ID   = 67025
ELEMENT_SET_NO = 999
REV_AT_EPOCH   = 287
BSTAR          = -.20333439E-1
MEAN_MOTION_DOT = -.1630639E-1
MEAN_MOTION_DDOT = 0

